RADUGA 1 [-]            
1 08513U 75123A   19118.51299522 -.00000174  00000-0  00000+0 0  9992
2 08513   9.1929 303.8098 0003408 189.2242 348.7503  1.00293432168800
RADUGA 2 [-]            
1 09416U 76092A   19118.51299522 -.00000182  00000-0  00000+0 0  9990
2 09416   9.8298 305.6396 0028702 327.8888 209.9326  1.00252089103195
RADUGA 3 [-]            
1 10159U 77071A   19118.79719002 -.00000028  00000-0  00000-0 0  9994
2 10159  10.4104 307.9321 0005859 216.4784  42.8577  1.00352886150903
RADUGA 4 [-]            
1 10987U 78073A   19119.01005858 -.00000349  00000-0  00000+0 0  9994
2 10987  10.9770 310.9076 0011923 336.1927  37.9378  1.00229724 93459
RADUGA 5 [-]            
1 11343U 79035A   19118.89522126 -.00000028  00000-0  00000-0 0  9992
2 11343  11.3868 313.2712 0003444  81.5794 209.6852  1.00260770103211
RADUGA 6 [-]            
1 11708U 80016A   19118.03855715 -.00000151  00000-0  00000-0 0  9994
2 11708  11.6845 315.8789 0001418 356.9737 357.9562  1.00201495 96014
RADUGA 7 [-]            
1 12003U 80081A   19119.41326288 -.00000254  00000-0  00000+0 0  9999
2 12003  11.8238 317.5489 0008705 259.4774 115.3586  1.00239153 97296
RADUGA 8 [-]            
1 12351U 81027A   19118.82206439 -.00000166  00000-0  00000-0 0  9998
2 12351  12.1381 318.2791 0081569 194.9698 338.3741  1.00356194 96380
RADUGA 9 [-]            
1 12618U 81069A   19118.61485858 -.00000022  00000-0  00000-0 0  9992
2 12618  12.2884 320.6693 0004196  43.2302 141.2452  1.00189863 21208
RADUGA 10 [-]           
1 12897U 81102A   19118.57313317 -.00000088  00000-0  00000+0 0  9995
2 12897  12.3512 321.4778 0002220 109.8778  64.7108  1.00248469 91269
RADUGA 11 [-]           
1 13669U 82113A   19118.87903025 -.00000192  00000-0  00000+0 0  9996
2 13669  14.0311 333.2355 0037054 227.9897 139.1918  0.97710137 96062
RADUGA 12 [-]           
1 13974U 83028A   19118.57542073 -.00000203  00000-0  00000+0 0  9993
2 13974  13.2020 330.1761 0004692  15.6492 162.3767  1.00278144143246
RADUGA 13 [-]           
1 14307U 83088A   19118.77949407 -.00000111  00000-0  00000-0 0  9993
2 14307  14.2068 334.8770 0019971   6.4079 184.4462  0.98174238 93354
RADUGA 14 [-]           
1 14725U 84016A   19118.64355196 -.00000028  00000-0  00000-0 0  9998
2 14725  13.2785 333.4429 0003903  43.3407 137.6138  1.00254582 91962
RADUGA 15 [-]           
1 15057U 84063A   19118.61913411 -.00000129  00000-0  00000-0 0  9998
2 15057  13.3649 334.4115 0002524  57.2423 121.9122  1.00380046114964
RADUGA 16 [-]           
1 15946U 85070A   19118.74433802  .00000095  00000-0  00000-0 0  9990
2 15946  13.6456 338.7094 0003162 344.9377  12.4228  1.00348425 96084
RADUGA 17 [-]           
1 16250U 85107A   19118.79726062  .00000010  00000-0  00000-0 0  9995
2 16250  13.7128 339.9455 0007355 142.7489  85.3564  1.00123774125566
RADUGA 18 [-]           
1 16497U 86007A   19119.51567372 -.00000195  00000-0  00000+0 0  9990
2 16497  14.4332 342.3678 0070556 132.5688  47.5645  0.98812935120161
RADUGA 19 [-]           
1 17046U 86082A   19119.38351543 -.00000210  00000-0  00000+0 0  9998
2 17046  14.6917 345.9806 0008829 100.7698  85.9042  0.98462326117299
RADUGA 20 [-]           
1 17611U 87028A   19118.30938693 -.00000158  00000-0  00000-0 0  9997
2 17611  16.5743 349.5407 0025857  99.9818 213.5220  0.95962831113291
RADUGA 21 [-]           
1 18631U 87100A   19118.31264674  .00000100  00000-0  00000+0 0  9998
2 18631  14.6949 347.4978 0003399   3.2272 185.0961  1.00241261114931
RADUGA 22 [-]           
1 19596U 88095A   19118.85112878 -.00000342  00000-0  00000+0 0  9999
2 19596  14.4801 351.3004 0004351  50.2263 254.7646  1.00248678 95562
RADUGA 23 [-]           
1 19928U 89030A   19119.21549910  .00000065  00000-0  00000+0 0  9991
2 19928  14.5346 353.0174 0016639 125.6271 230.7217  1.00191659108717
RADUGA-1 1 [-]          
1 20083U 89048A   19118.71090963  .00000022  00000-0  00000-0 0  9991
2 20083  15.1599 355.7804 0018999  71.5130 112.3426  0.98706359105541
RADUGA 24 [-]           
1 20367U 89098A   19118.91278456 -.00000247  00000-0  00000-0 0  9998
2 20367  14.9956 355.4851 0003678 323.9200 313.9270  1.00332577106839
RADUGA 25 [-]           
1 20499U 90016A   19119.36242192 -.00000040  00000-0  00000+0 0  9994
2 20499  14.7311 355.9719 0003314 359.3441 237.1988  1.00166704106811
RADUGA 26 [-]           
1 21016U 90112A   19118.64007591 -.00000246  00000-0  00000+0 0  9997
2 21016  14.8754 359.1263 0007340  17.3943 160.5449  1.00237414104108
RADUGA-1 2 [-]          
1 21038U 90116A   19119.08106859 -.00000326  00000-0  00000+0 0  9990
2 21038  14.9109 359.2217 0007233  31.5118 315.5750  1.00283949103784
RADUGA 27 [-]           
1 21132U 91014A   19118.78097708  .00000118  00000-0  00000-0 0  9990
2 21132  15.4321 359.2150 0005603   0.1358 173.6711  1.00205476103176
RADUGA 28 [-]           
1 21821U 91087A   19118.64869888 -.00000285  00000-0  00000+0 0  9991
2 21821  15.0145   2.5100 0005057  43.0360 136.7712  1.00354126100216
RADUGA 29 [-]           
1 22557U 93013A   19118.84954451  .00000091  00000-0  00000-0 0  9997
2 22557  14.9878   6.6260 0005098  34.4207 140.7998  1.00317519 95540
RADUGA 30 [-]           
1 22836U 93062A   19118.72774236 -.00000077  00000-0  00000-0 0  9994
2 22836  14.9236   8.4794 0006636 310.4731 230.2834  1.00282622 19869
RADUGA-1 3 [-]          
1 22981U 94008A   19118.81299351  .00000077  00000-0  00000-0 0  9995
2 22981  14.9375   9.6618 0004373 349.5535 200.2553  1.00292036 92342
RADUGA 31 [-]           
1 23010U 94012A   19118.91490206 -.00000210  00000-0  00000-0 0  9997
2 23010  14.9038   9.6291 0004988   4.6702 258.4591  1.00210917 92217
RADUGA 32 [-]           
1 23448U 94087A   19118.71630670 -.00000078  00000-0  00000-0 0  9995
2 23448  14.7409  12.2291 0005199 248.8353 284.2422  1.00280042106741
RADUGA-1 4 [-]          
1 25642U 99010A   19118.72034812 -.00000247  00000-0  00000-0 0  9999
2 25642  14.6484  24.2122 0004739 277.1136 266.0480  1.00198828 73813
RADUGA-1 5 [-]          
1 26477U 00049A   19118.72296521 -.00000346  00000-0  00000-0 0  9997
2 26477  12.3843  27.3865 0005884 339.5339 214.8116  1.00259612 68283
RADUGA-1 6 [-]          
1 26936U 01045A   19118.71820288 -.00000064  00000-0  00000-0 0  9993
2 26936  12.2050  33.1208 0011913 145.5299  32.0527  0.97743593 63123
RADUGA-1 7 [-]          
1 28194U 04010A   19118.74301594 -.00000375  00000-0  00000-0 0  9998
2 28194  10.6158  40.2563 0003492 280.5706 282.4051  1.00327418 55270
RADUGA-1M 1 [-]         
1 32373U 07058A   19118.64680852  .00000020  00000-0  00000-0 0  9999
2 32373   4.4568  70.6377 0004800 286.4536 292.5756  0.99398813 26489
RADUGA-1 8 [-]          
1 34264U 09010A   19119.16333204 -.00000261  00000-0  00000+0 0  9991
2 34264   7.0334  62.6555 0013834 318.7890  47.1209  0.99832709 37158
RADUGA-1M 2 [+]         
1 36358U 10002A   19119.50869484 -.00000190  00000-0  00000+0 0  9993
2 36358   0.0264 248.8438 0002851 180.0805  56.3608  1.00269307 33882
RADUGA-1M 3 [+]         
1 39375U 13062A   19118.99793541 -.00000048  00000-0  00000-0 0  9999
2 39375   0.0118 214.0954 0003649 216.8391 215.0359  1.00272671 19995
